{
  "norad_id": 43890,
  "name": "GRUS-1A",
  "history": [
    {
      "epoch": "2026-03-28T22:18:41.251968",
      "apogee_km": 577.9649616408651,
      "perigee_km": 562.1876536831578,
      "latitude_deg": 42.26750575373968,
      "longitude_deg": 98.24583551986143,
      "semi_major_axis_km": 6948.213307662011,
      "eccentricity": 0.00113535,
      "inclination_deg": 97.4666,
      "raan_deg": 318.5107,
      "arg_perigee_deg": 70.5257,
      "mean_anomaly_deg": 289.7192,
      "mean_motion_rev_day": 14.98970369
    },
    {
      "epoch": "2026-03-29T04:43:11.521632",
      "apogee_km": 577.9558889558166,
      "perigee_km": 562.1917882052448,
      "latitude_deg": -84.72592298053746,
      "longitude_deg": 123.87946847989224,
      "semi_major_axis_km": 6948.21083858053,
      "eccentricity": 0.0011344,
      "inclination_deg": 97.4667,
      "raan_deg": 318.7664,
      "arg_perigee_deg": 69.5803,
      "mean_anomaly_deg": 290.6638,
      "mean_motion_rev_day": 14.98971168
    }
  ]
}